KAITUO 1B               
1 40912U 15049P   18032.74373265  .00001070  00000-0  55130-4 0  9992
2 40912  97.4504  42.0144 0017150 119.3372 327.4852 15.18413071131111
TIANWANG 1C (TW-1C)     
1 40926U 15051B   18032.83277553  .00005950  00000-0  11993-3 0  9992
2 40926  97.2026  75.8823 0012207  60.4289 354.3640 15.46856775132378
TIANWANG 1B (TW-1B)     
1 40927U 15051C   18032.81161522  .00005514  00000-0  11583-3 0  9990
2 40927  97.2109  75.7671 0012414  69.0911 337.8920 15.45678095132292
TIANWANG 1A (TW-1A)     
1 40928U 15051D   18032.45225075  .00002428  00000-0  67151-4 0  9999
2 40928  97.2021  69.0713 0014260  91.6549  15.5546 15.37882652131917
LAPAN-A2 (IO-86)        
1 40931U 15052B   18032.36058954  .00000757  00000-0  16439-4 0  9990
2 40931   5.9988  38.5755 0013181 249.6522 110.2637 14.76563983126893
LQSAT                   
1 40958U 15057A   18032.85176369 -.00000027  00000-0  35901-5 0  9996
2 40958  97.9550 108.8798 0019504  53.5986 306.7011 14.73013290124925
CHUBUSAT-2              
1 41338U 16012B   18032.55827192  .00000297  00000-0  16520-4 0  9998
2 41338  31.0037  95.3150 0013805 170.4189 189.6711 14.99912466107456
CHUBUSAT-3              
1 41339U 16012C   18032.52263740  .00000284  00000-0  15390-4 0  9999
2 41339  31.0084  94.3346 0013744 177.8619 182.2077 15.00104358107434
OUFTI-1                 
1 41458U 16025C   18032.42242081  .00002106  00000-0  11454-3 0  9990
2 41458  98.1562  87.9287 0170431 242.4613 115.9209 15.04208930 97032
E-ST@R-II               
1 41459U 16025D   18032.53965935  .00001177  00000-0  66559-4 0  9997
2 41459  98.1565  87.9440 0170781 242.5858 115.7908 15.03976648 97038
AAUSAT 4                
1 41460U 16025E   18032.70618086  .00001201  00000-0  67335-4 0  9991
2 41460  98.1475  88.4254 0162542 238.9790 119.5393 15.05222054 97104
NUSAT 1 (LO-87)         
1 41557U 16033B   18032.75238528  .00001072  00000-0  41989-4 0  9994
2 41557  97.4457 117.1889 0012286 277.1655  82.8187 15.27956584 93476
BEESAT-4                
1 41619U 16040W   18032.16619349  .00001092  00000-0  51290-4 0  9998
2 41619  97.4337  97.1012 0011401 355.3927   4.7202 15.21706072 77401
PRATHAM                 
1 41783U 16059A   18032.43649861  .00000045  00000-0  18192-4 0  9993
2 41783  98.1372  96.0625 0034164 159.8706 200.3852 14.62897585 72113
ALSAT 1N                
1 41789U 16059G   18032.71277441  .00000054  00000-0  19432-4 0  9999
2 41789  98.1373  97.2846 0029010 151.1182 209.1629 14.64123327 72190
NAYIF-1 (EO-88)         
1 42017U 17008BX  18032.79273711  .00001210  00000-0  52904-4 0  9999
2 42017  97.4663  98.5701 0007819 128.2431 231.9511 15.23995585 53447
LILACSAT-1              
1 42725U 98067ME  18032.84734168  .00016047  00000-0  17604-3 0  9994
2 42725  51.6386 325.1712 0006086  88.0951 272.0741 15.63386931 39317
MAX VALIER SAT          
1 42778U 17036P   18032.60483323  .00000761  00000-0  37373-4 0  9999
2 42778  97.4226  94.4577 0012905 177.4764 182.6539 15.21008565 33899
FOX-1B (AO-91)          
1 43017U 17073E   18032.81041506  .00000949  00000-0  80281-4 0  9997
2 43017  97.6990 329.6730 0260387 352.6153   7.1253 14.77875809 11116
FOX-1D (AO-92)          
1 43137U 18004AC  18032.12107531  .00000830  00000-0  39033-4 0  9998
2 43137  97.5529  94.3387 0008846 208.0413 152.0347 15.22397473  3003
